STARLINK-34430          
1 64456U 25130U   25179.58335648 -.01182609  00000+0 -55254-2 0  9993
2 64456  53.1537 199.7510 0001015  57.9563 358.7487 15.85002097  2860
STARLINK-34445          
1 64457U 25130V   25179.58335648 -.01194073  00000+0 -55841-2 0  9994
2 64457  53.1536 199.7454 0001108  53.6322   5.6136 15.85006222  2870
STARLINK-34439          
1 64458U 25130W   25179.58335648 -.01206691  00000+0 -56528-2 0  9998
2 64458  53.1538 199.7390 0001075  54.7337   7.5546 15.84997790  2866
STARLINK-34421          
1 64459U 25130X   25179.58335648 -.01215653  00000+0 -57042-2 0  9999
2 64459  53.1535 199.7326 0000916  64.4202   0.9279 15.84984336  2867
STARLINK-34423          
1 64460U 25130Y   25179.58335648 -.01219184  00000+0 -57290-2 0  9999
2 64460  53.1537 199.7267 0001012  67.5776   0.7074 15.84961219  2881
STARLINK-34418          
1 64461U 25130Z   25179.58335648 -.01236878  00000+0 -58168-2 0  9994
2 64461  53.1537 199.7215 0000883  64.5236   6.1939 15.84983530  2866
STARLINK-34336          
1 64462U 25130AA  25179.58335648 -.01238409  00000+0 -58284-2 0  9996
2 64462  53.1537 199.7153 0001233  60.8215  12.8625 15.84967489  2887
STARLINK-34400          
1 64463U 25130AB  25179.58335648 -.01261046  00000+0 -59523-2 0  9997
2 64463  53.1536 199.7039 0001255  61.1747  18.1553 15.84955246  2874
STARLINK-34429          
1 64464U 25130AC  25179.58335648 -.01260740  00000+0 -59501-2 0  9994
2 64464  53.1538 199.7092 0001038  54.3520  22.3925 15.84959611  2867
STARLINK-34449          
1 64465U 25130AD  25179.58335648 -.01282471  00000+0 -60705-2 0  9998
2 64465  53.1538 199.6974 0000980  68.2240  14.2005 15.84946175  2875
COSMOS 2589             
1 64467U 25131A   25178.52999712 -.00000357  00000+0  00000+0 0  9990
2 64467   1.0731 280.5930 3665392 173.7560 115.6249  1.00618462    74
BREEZE-M R/B            
1 64468U 25131B   25173.80781051 -.00000145  00000+0  00000+0 0  9997
2 64468   1.4224 285.7735 3876101 171.5822 241.3112  1.04440359    39
CZ-3B R/B               
1 64470U 25132A   25171.34247384  .00000027  00000+0  00000+0 0  9992
2 64470  26.7023  94.2081 4807309 178.5577 286.0213  6.06457804    00
CHINASAT 9C             
1 64471U 25132B   25174.00107397  .00034859  10707-5  27458-2 0  9998
2 64471  27.6596  94.1232 7342523 181.2255 175.0847  2.23177309    62
STARLINK-34493          
1 64472U 25133A   25179.58335648 -.01071718  34957-3 -30289-2 0  9995
2 64472  53.1563 231.1274 0000639  56.7631  72.6332 15.92772708  2085
STARLINK-34492          
1 64473U 25133B   25179.58335648 -.01079585  35455-3 -30373-2 0  9994
2 64473  53.1562 231.1242 0000590  63.9255  66.9912 15.92860901  2081
STARLINK-34474          
1 64474U 25133C   25179.58335648 -.01087979  35988-3 -30469-2 0  9998
2 64474  53.1563 231.1210 0000584  77.8539  54.5987 15.92949923  2065
STARLINK-34523          
1 64475U 25133D   25179.58335648 -.01102172  36881-3 -30707-2 0  9990
2 64475  53.1563 231.1175 0000832  58.3543  75.7874 15.93050825  2066
STARLINK-34496          
1 64476U 25133E   25179.58335648 -.01110084  37395-3 -30784-2 0  9998
2 64476  53.1562 231.1141 0000840  65.2796  70.3897 15.93140650  2089
STARLINK-34375          
1 64477U 25133F   25179.58335648 -.01099365  36771-3 -30360-2 0  9994
2 64477  53.1563 231.1108 0000922  57.6344  79.6525 15.93217729  2081
STARLINK-34490          
1 64478U 25133G   25179.58335648 -.01137571  39200-3 -31098-2 0  9996
2 64478  53.1563 231.1043 0000699  61.3253  79.0936 15.93417448  2082
STARLINK-34528          
1 64479U 25133H   25179.58335648 -.01125851  38430-3 -30945-2 0  9999
2 64479  53.1563 231.1079 0000743  65.4538  73.2059 15.93312428  2065
STARLINK-34518          
1 64480U 25133J   25179.58335648 -.01144502  39675-3 -31123-2 0  9996
2 64480  53.1562 231.1005 0000638  74.4896  67.6601 15.93518598  1925
STARLINK-34526          
1 64481U 25133K   25179.58335648 -.01158255  40583-3 -31343-2 0  9991
2 64481  53.1562 231.0972 0000698  61.1392  82.5961 15.93613700  1979
STARLINK-34527          
1 64482U 25133L   25179.58335648 -.01164917  41046-3 -31371-2 0  9990
2 64482  53.1562 231.0939 0000723  66.5899  78.7225 15.93706351  2081
STARLINK-34420          
1 64483U 25133M   25179.58335648 -.01175784  41785-3 -31502-2 0  9991
2 64483  53.1563 231.0904 0000655  75.4165  71.5979 15.93805000  2082
STARLINK-34509          
1 64484U 25133N   25179.58335648 -.01185222  42435-3 -31604-2 0  9996
2 64484  53.1562 231.0869 0000681  57.7251  90.8411 15.93896430  2082
STARLINK-34409          
1 64485U 25133P   25179.58335648 -.01192800  42967-3 -31659-2 0  9997
2 64485  53.1560 231.0840 0000602  61.4057  88.6964 15.93985155  2080
STARLINK-34520          
1 64486U 25133Q   25179.58335648 -.01206998  43945-3 -31870-2 0  9994
2 64486  53.1561 231.0801 0000508  68.2751  83.4974 15.94085431  2083
STARLINK-34477          
1 64487U 25133R   25179.58335648 -.01217505  44686-3 -31989-2 0  9995
2 64487  53.1562 231.0769 0000526  69.0978  84.2783 15.94180113  2088
STARLINK-34217          
1 64488U 25133S   25179.58335648 -.01228026  45433-3 -32109-2 0  9992
2 64488  53.1562 231.0735 0000540  68.4853  86.4764 15.94273187  1977
STARLINK-34307          
1 64489U 25133T   25179.58335648 -.01229431  45564-3 -32006-2 0  9995
2 64489  53.1561 231.0705 0000602  69.7835  86.6643 15.94355054  2060
STARLINK-34505          
1 64490U 25133U   25179.58335648 -.01244553  46633-3 -32243-2 0  9990
2 64490  53.1561 231.0669 0000720  61.0666  96.9281 15.94448367  2061
STARLINK-34530          
1 64491U 25133V   25179.58335648 -.01252214  47201-3 -32280-2 0  9997
2 64491  53.1561 231.0635 0000745  73.6477  85.9624 15.94543057  2062
STARLINK-34522          
1 64492U 25133W   25179.58335648 -.01260896  47845-3 -32339-2 0  9992
2 64492  53.1561 231.0600 0000628  76.3604  84.9181 15.94639738  2088
STARLINK-34462          
1 64493U 25133X   25179.58335648 -.01275185  48885-3 -32535-2 0  9993
2 64493  53.1561 231.0565 0000935  62.0944 100.8577 15.94739338  2083
STARLINK-34226          
1 64494U 25133Y   25179.58335648 -.01278258  49136-3 -32486-2 0  9993
2 64494  53.1559 231.0539 0000707  64.2708 100.0201 15.94813241  1925
STARLINK-34364          
1 64495U 25133Z   25179.58335648 -.01302035  50916-3 -32743-2 0  9999
2 64495  53.1560 231.0468 0000687  74.3812  93.2737 15.95013830  2086
STARLINK-34268          
1 64496U 25133AA  25179.58335648 -.01290755  50064-3 -32634-2 0  9998
2 64496  53.1561 231.0504 0000677  65.1033 100.8649 15.94912024  2080
STARLINK-34363          
1 64497U 25133AB  25179.58335648 -.01313697  51803-3 -32859-2 0  9991
2 64497  53.1560 231.0433 0000648  72.3151  97.0872 15.95115910  2085
STARLINK-34427          
1 64498U 25133AC  25179.58335648 -.01326696  52800-3 -32992-2 0  9991
2 64498  53.1559 231.0397 0000648  59.0769 112.0741 15.95225943  2081
KUIPER-00039            
1 64500U 25134A   25179.58335648 -.00010968  00000+0 -31137-3 0  9999
2 64500  51.8697 306.2639 0008803 129.1445 157.9871 15.34565923  1302
KUIPER-00040            
1 64501U 25134B   25179.58335648 -.00010103  00000+0 -29385-3 0  9993
2 64501  51.8676 306.2985 0012012 143.0162 127.2902 15.33671352  1300
KUIPER-00041            
1 64502U 25134C   25179.58335648 -.00009619  00000+0 -27647-3 0  9993
2 64502  51.8701 306.2844 0010830 140.3497 136.6070 15.33994766  1308
KUIPER-00042            
1 64503U 25134D   25179.58335648 -.00010510  00000+0 -30106-3 0  9990
2 64503  51.8673 306.2774 0010045 133.3528 147.3552 15.34219636  1305
KUIPER-00043            
1 64504U 25134E   25179.58335648 -.00011171  00000+0 -31828-3 0  9997
2 64504  51.8709 306.2667 0009427 127.2308 158.1951 15.34468492  1957
KUIPER-00044            
1 64505U 25134F   25179.58335648 -.00010201  00000+0 -29450-3 0  9999
2 64505  51.8661 306.2911 0011901 138.1096 135.9201 15.33917482  1556
KUIPER-00046            
1 64506U 25134G   25179.58335648 -.00010899  00000+0 -31354-3 0  9999
2 64506  51.8687 306.2805 0010694 132.0130 147.0098 15.34122396  1301
KUIPER-00047            
1 64507U 25134H   25179.58335648 -.00010368  00000+0 -30023-3 0  9993
2 64507  51.8648 306.2921 0011266 141.4136 132.2302 15.33850082  1307
KUIPER-00048            
1 64508U 25134J   25179.58335648 -.00011224  00000+0 -30755-3 0  9998
2 64508  51.8782 306.2100 0003954 116.6726 192.3955 15.35731218  1302
KUIPER-00049            
1 64509U 25134K   25179.58335648 -.00011009  00000+0 -31025-3 0  9991
2 64509  51.8730 306.2519 0007920 126.7592 165.4621 15.34808230  2018
KUIPER-00050            
1 64510U 25134L   25179.58335648 -.00010394  00000+0 -29302-3 0  9994
2 64510  51.8742 306.2556 0008255 126.7226 163.1922 15.34723571  1371
KUIPER-00051            
1 64511U 25134M   25179.58335648 -.00010816  00000+0 -30118-3 0  9991
2 64511  51.8749 306.2366 0006411 120.8776 178.0277 15.35171671  1956
KUIPER-00052            
1 64512U 25134N   25179.58335648 -.00010365  00000+0 -28657-3 0  9996
2 64512  51.8774 306.2254 0005316 122.2482 180.4614 15.35348307  1307
KUIPER-00053            
1 64513U 25134P   25179.58335648 -.00012109  00000+0 -32789-3 0  9996
2 64513  51.8787 306.1936 0002900 106.3060 209.3706 15.36184545  1305
KUIPER-00054            
1 64514U 25134Q   25179.58335648 -.00010429  00000+0 -28415-3 0  9991
2 64514  51.8777 306.2084 0003775 106.3594 204.2631 15.35820248  1973
KUIPER-00055            
1 64515U 25134R   25179.58335648 -.00012306  00000+0 -32832-3 0  9996
2 64515  51.8786 306.1762 0001043  83.7288 240.8693 15.36664674  1884
KUIPER-00056            
1 64516U 25134S   25179.58335648 -.00011510  00000+0 -31708-3 0  9994
2 64516  51.8758 306.2202 0004512 119.3038 187.3654 15.35590020  1432
KUIPER-00057            
1 64517U 25134T   25179.58335648 -.00006021  00000+0 -16398-3 0  9994
2 64517  51.8719 306.2473 0006751 125.6856 169.1460 15.34915020  1685
